NORAD_CAT_ID,OBJECT_NAME,OBJECT_TYPE,EPOCH,MEAN_MOTION,ECCENTRICITY,INCLINATION,RA_OF_ASC_NODE,ARG_OF_PERICENTER,MEAN_ANOMALY,BSTAR,MEAN_MOTION_DOT,MEAN_MOTION_DDOT,TLE_LINE0,TLE_LINE1,TLE_LINE2,SEMIMAJOR_AXIS,PERIOD,APOGEE,PERIGEE,DECAYED
52275.0,STARLINK-3784,PAYLOAD,2024-07-16 11:42:08,15.08837548,0.0001568,53.2167,288.0267,107.0382,253.0782,0.00085572,0.00013356,0.0,0 STARLINK-3784,1 52275U 22041Q   24198.48760108  .00013356  00000-0  85572-3 0  9996,2 52275  53.2167 288.0267 0001568 107.0382 253.0782 15.08837548124813,6917.888,95.438,540.838,538.668,0.0
52275.0,STARLINK-3784,PAYLOAD,2024-07-16 13:17:31,15.08841399,0.0001368,53.2163,287.7295,103.5383,256.5761,0.0018984,0.00030055,0.0,0 STARLINK-3784,1 52275U 22041Q   24198.55384161  .00030055  00000-0  18984-2 0  9992,2 52275  53.2163 287.7295 0001368 103.5383 256.5761 15.08841399124821,6917.876,95.437,540.687,538.795,0.0
52275.0,STARLINK-3784,PAYLOAD,2024-07-17 13:08:19,15.08837853,0.0001176,53.2153,283.2678,78.8446,281.2678,0.0020366,0.00032271,0.0,0 STARLINK-3784,1 52275U 22041Q   24199.54744480  .00032271  00000-0  20366-2 0  9995,2 52275  53.2153 283.2678 0001176  78.8446 281.2678 15.08837853124975,6917.887,95.438,540.565,538.938,0.0
52275.0,STARLINK-3784,PAYLOAD,2024-07-18 12:59:06,15.08840729,0.0001323,53.2151,278.8084,84.4425,275.6718,0.00056007,8.637e-05,0.0,0 STARLINK-3784,1 52275U 22041Q   24200.54105021  .00008637  00000-0  56007-3 0  9991,2 52275  53.2151 278.8084 0001323  84.4425 275.6718 15.08840729125124,6917.878,95.438,540.658,538.828,0.0
52275.0,STARLINK-3784,PAYLOAD,2024-07-19 11:14:30,15.0884584,0.0001369,53.2161,274.6438,85.457,274.6578,0.00033681,5.077e-05,0.0,0 STARLINK-3784,1 52275U 22041Q   24201.46841001  .00005077  00000-0  33681-3 0  9996,2 52275  53.2161 274.6438 0001369  85.4570 274.6578 15.08845840125261,6917.863,95.437,540.675,538.78,0.0
52275.0,STARLINK-3784,PAYLOAD,2024-07-19 22:22:12,15.08856769,0.0001267,53.2154,272.5607,94.2413,265.8723,0.00048873,7.502e-05,0.0,0 STARLINK-3784,1 52275U 22041Q   24201.93208389  .00007502  00000-0  48873-3 0  9998,2 52275  53.2154 272.5607 0001267  94.2413 265.8723 15.08856769124129,6917.829,95.436,540.571,538.818,0.0
52275.0,STARLINK-3784,PAYLOAD,2024-07-20 11:05:17,15.0884502,0.0001444,53.2153,270.1837,87.5614,272.5544,0.00014139,1.963e-05,0.0,0 STARLINK-3784,1 52275U 22041Q   24202.46200657  .00001963  00000-0  14139-3 0  9990,2 52275  53.2153 270.1837 0001444  87.5614 272.5544 15.08845020125419,6917.865,95.437,540.729,538.731,0.0
52275.0,STARLINK-3784,PAYLOAD,2024-07-21 10:56:04,15.08838269,0.0001398,53.2152,265.7234,86.9793,273.136,9.8535e-06,-1.31e-06,0.0,0 STARLINK-3784,1 52275U 22041Q   24203.45560827 -.00000131  00000-0  98535-5 0  9999,2 52275  53.2152 265.7234 0001398  86.9793 273.1360 15.08838269125564,6917.886,95.438,540.718,538.784,0.0
52275.0,STARLINK-3784,PAYLOAD,2024-07-22 04:25:17,15.08866407,0.0001329,53.2153,262.4521,122.244,237.8681,0.00042621,6.507e-05,0.0,0 STARLINK-3784,1 52275U 22041Q   24204.18422569  .00006507  00000-0  42621-3 0  9995,2 52275  53.2153 262.4521 0001329 122.2440 237.8681 15.08866407125675,6917.8,95.436,540.584,538.745,0.0
52275.0,STARLINK-3784,PAYLOAD,2024-07-22 09:11:27,15.08829916,0.0001233,53.2151,261.5603,118.8396,241.272,-0.00014009,-2.516e-05,0.0,0 STARLINK-3784,1 52275U 22041Q   24204.38296102 -.00002516  00000-0 -14009-3 0  9996,2 52275  53.2151 261.5603 0001233 118.8396 241.2720 15.08829916125700,6917.911,95.438,540.629,538.923,0.0
52275.0,STARLINK-3784,PAYLOAD,2024-07-22 13:57:37,15.08832932,0.0001227,53.215,260.6684,130.3003,229.8096,-0.00014652,-2.618e-05,0.0,0 STARLINK-3784,1 52275U 22041Q   24204.58167903 -.00002618  00000-0 -14652-3 0  9991,2 52275  53.2150 260.6684 0001227 130.3003 229.8096 15.08832932124524,6917.902,95.438,540.616,538.918,0.0
52275.0,STARLINK-3784,PAYLOAD,2024-07-23 10:37:37,15.08853152,0.0001769,53.2145,256.8035,147.9847,212.1253,-0.00050837,-8.373e-05,0.0,0 STARLINK-3784,1 52275U 22041Q   24205.44279047 -.00008373  00000-0 -50837-3 0  9999,2 52275  53.2145 256.8035 0001769 147.9847 212.1253 15.08853152125861,6917.84,95.437,540.929,538.481,0.0
52275.0,STARLINK-3784,PAYLOAD,2024-07-24 04:06:53,15.08827162,8.77e-05,53.2135,253.5309,131.4137,228.6931,0.00026098,3.867e-05,0.0,0 STARLINK-3784,1 52275U 22041Q   24206.17144941  .00003867  00000-0  26098-3 0  9997,2 52275  53.2135 253.5309 0000877 131.4137 228.6931 15.08827162125976,6917.92,95.438,540.391,539.178,0.0
52275.0,STARLINK-3784,PAYLOAD,2024-07-24 12:03:49,15.08828279,8.93e-05,53.2132,252.0438,127.6449,232.4624,0.00018757,2.698e-05,0.0,0 STARLINK-3784,1 52275U 22041Q   24206.50265227  .00002698  00000-0  18757-3 0  9999,2 52275  53.2132 252.0438 0000893 127.6449 232.4624 15.08828279124815,6917.916,95.438,540.399,539.163,0.0
52275.0,STARLINK-3784,PAYLOAD,2024-07-25 11:54:36,15.0884511,8.08e-05,53.2134,247.5823,112.0567,248.0511,0.00032598,4.905e-05,0.0,0 STARLINK-3784,1 52275U 22041Q   24207.49625005  .00004905  00000-0  32598-3 0  9994,2 52275  53.2134 247.5823 0000808 112.0567 248.0511 15.08845110126171,6917.865,95.437,540.289,539.171,0.0
52275.0,STARLINK-3784,PAYLOAD,2024-07-26 10:09:59,15.08849992,8.18e-05,53.2132,243.419,111.2233,248.8847,0.00032152,4.834e-05,0.0,0 STARLINK-3784,1 52275U 22041Q   24208.42360755  .00004834  00000-0  32152-3 0  9993,2 52275  53.2132 243.4190 0000818 111.2233 248.8847 15.08849992125107,6917.85,95.437,540.281,539.149,0.0
52275.0,STARLINK-3784,PAYLOAD,2024-07-26 19:42:19,15.08830541,9.42e-05,53.2132,241.6346,90.1678,269.9422,-0.00010737,-1.996e-05,0.0,0 STARLINK-3784,1 52275U 22041Q   24208.82105627 -.00001996  00000-0 -10737-3 0  9995,2 52275  53.2132 241.6346 0000942  90.1678 269.9422 15.08830541126379,6917.909,95.438,540.426,539.123,0.0
52275.0,STARLINK-3784,PAYLOAD,2024-07-27 06:50:02,15.08815432,0.0001649,53.215,239.5507,95.3299,264.7882,-0.00028718,-4.853e-05,0.0,0 STARLINK-3784,1 52275U 22041Q   24209.28474853 -.00004853  00000-0 -28718-3 0  9999,2 52275  53.2150 239.5507 0001649  95.3299 264.7882 15.08815432125234,6917.955,95.439,540.961,538.68,0.0
52275.0,STARLINK-3784,PAYLOAD,2024-07-27 08:25:25,15.08820862,0.0001957,53.2151,239.2557,83.5711,276.5504,-0.00016403,-2.896e-05,0.0,0 STARLINK-3784,1 52275U 22041Q   24209.35099072 -.00002896  00000-0 -16403-3 0  9996,2 52275  53.2151 239.2557 0001957  83.5711 276.5504 15.08820862126457,6917.939,95.439,541.158,538.45,0.0
52275.0,STARLINK-3784,PAYLOAD,2024-07-27 11:36:12,15.08819418,0.0002094,53.2151,238.6598,86.8645,273.2587,-6.0969e-05,-1.258e-05,0.0,0 STARLINK-3784,1 52275U 22041Q   24209.48347267 -.00001258  00000-0 -60969-4 0  9990,2 52275  53.2151 238.6598 0002094  86.8645 273.2587 15.08819418125268,6917.943,95.439,541.257,538.36,0.0
52275.0,STARLINK-3784,PAYLOAD,2024-07-28 05:05:26,15.08840838,0.0001627,53.214,235.3936,127.1595,232.9546,0.00049026,7.523e-05,0.0,0 STARLINK-3784,1 52275U 22041Q   24210.21210825  .00007523  00000-0  49026-3 0  9991,2 52275  53.2140 235.3936 0001627 127.1595 232.9546 15.08840838126583,6917.878,95.438,540.868,538.617,0.0
52275.0,STARLINK-3784,PAYLOAD,2024-07-28 08:16:12,15.08842911,0.0001169,53.2144,234.795,91.8943,268.2183,0.00074885,0.00011651,0.0,0 STARLINK-3784,1 52275U 22041Q   24210.34459143  .00011651  00000-0  74885-3 0  9991,2 52275  53.2144 234.7950 0001169  91.8943 268.2183 15.08842911125392,6917.871,95.437,540.545,538.928,0.0
52275.0,STARLINK-3784,PAYLOAD,2024-07-29 11:17:44,15.08866173,0.0001197,53.2141,229.7398,82.0196,278.0932,0.00053983,8.32e-05,0.0,0 STARLINK-3784,1 52275U 22041Q   24211.47065723  .00008320  00000-0  53983-3 0  9998,2 52275  53.2141 229.7398 0001197  82.0196 278.0932 15.08866173126772,6917.8,95.436,540.493,538.837,0.0
52275.0,STARLINK-3784,PAYLOAD,2024-07-30 04:46:58,15.08852506,0.0001352,53.2144,226.4655,84.7438,275.3709,0.00011073,1.475e-05,0.0,0 STARLINK-3784,1 52275U 22041Q   24212.19929374  .00001475  00000-0  11073-3 0  9997,2 52275  53.2144 226.4655 0001352  84.7438 275.3709 15.08852506126885,6917.842,95.437,540.642,538.772,0.0
52275.0,STARLINK-3784,PAYLOAD,2024-07-30 07:57:45,15.08849016,0.0001205,53.2138,225.872,81.488,278.6249,4.2524e-05,3.89e-06,0.0,0 STARLINK-3784,1 52275U 22041Q   24212.33177607  .00000389  00000-0  42524-4 0  9996,2 52275  53.2138 225.8720 0001205  81.4880 278.6249 15.08849016125691,6917.853,95.437,540.551,538.884,0.0
52275.0,STARLINK-3784,PAYLOAD,2024-07-30 17:30:04,15.08849925,0.0001243,53.2142,224.0881,81.5213,278.592,3.2696e-05,2.33e-06,0.0,0 STARLINK-3784,1 52275U 22041Q   24212.72921328  .00000233  00000-0  32696-4 0  9993,2 52275  53.2142 224.0881 0001243  81.5213 278.5920 15.08849925125759,6917.85,95.437,540.575,538.855,0.0
52275.0,STARLINK-3784,PAYLOAD,2024-07-31 04:37:46,15.08839417,0.0001358,53.2148,222.0073,84.719,275.3957,-0.00010836,-2.012e-05,0.0,0 STARLINK-3784,1 52275U 22041Q   24213.19289740 -.00002012  00000-0 -10836-3 0  9990,2 52275  53.2148 222.0073 0001358  84.7190 275.3957 15.08839417127035,6917.882,95.438,540.687,538.808,0.0
52275.0,STARLINK-3784,PAYLOAD,2024-07-31 07:48:32,15.08842983,0.0001311,53.2151,221.4133,86.8429,273.2713,-3.3478e-05,-8.21e-06,0.0,0 STARLINK-3784,1 52275U 22041Q   24213.32537957 -.00000821  00000-0 -33478-4 0  9995,2 52275  53.2151 221.4133 0001311  86.8429 273.2713 15.08842983125842,6917.871,95.437,540.643,538.829,0.0
52275.0,STARLINK-3784,PAYLOAD,2024-07-31 17:20:51,15.08843769,0.0001319,53.2154,219.6289,85.4936,274.6207,-5.523e-06,-3.76e-06,0.0,0 STARLINK-3784,1 52275U 22041Q   24213.72281721 -.00000376  00000-0 -55230-5 0  9990,2 52275  53.2154 219.6289 0001319  85.4936 274.6207 15.08843769125905,6917.869,95.437,540.646,538.821,0.0
52275.0,STARLINK-3784,PAYLOAD,2024-08-01 09:14:42,15.08843899,0.0001393,53.2156,216.657,94.8644,265.2507,0.00011925,1.611e-05,0.0,0 STARLINK-3784,1 52275U 22041Q   24214.38521367  .00001611  00000-0  11925-3 0  9998,2 52275  53.2156 216.6570 0001393  94.8644 265.2507 15.08843899127218,6917.868,95.437,540.697,538.77,0.0
